{
  "vehicles":[
    {"id":"vehicleID1", "capacity":4, "startlocation":{
      "lat":48.4863754,"lon":9.206289,"street":"Alteburgstrasse","houseNo":0,"city":"Reutlingen","zip":72762}

    },
    {"id":"vehicleID2", "capacity":4, "startlocation":{
      "lat":48.782300,"lon":9.176220,"street":"Friedrichstraße","houseNo":14,"city":"Stuttgart","zip":70174}

    }
  ],

  "services":[
    {"jobid":"jobID1", "capacity":1,
      "pickup":{
        "lat":48.48477870000001,"lon":9.204264,"street":"Alteburgstrasse","houseNo":43,"city":"Reutlingen","zip":72770},
      "delivery":{
        "lat":48.636960,"lon":9.494740,"street":"Amselweg","houseNo":28,"city":"Kirchheim u.T.","zip":73230}

    },
    {"jobid":"jobID2", "capacity":1,
      "pickup":{
        "lat":48.757751,"lon":9.450042,"street":"Hauptstraße","houseNo":23,"city":"Baltmannsweiler","zip":73666},
      "delivery":{
        "lat":48.004496,"lon":7.836053,"street":"Breisacher Straße","houseNo":0,"city":"Freiburg im Breisgau","zip":79098}

    },
    {"jobid":"jobID3", "capacity":1,
      "pickup":{
        "lat":48.782300,"lon":9.176220,"street":"Friedrichstraße","houseNo":14,"city":"Stuttgart","zip":70174},
      "delivery":{
        "lat":48.439037,"lon":9.1501036,"street":"Groubachstrasse","houseNo":21,"city":"Reutlingen","zip":72770}

    },
    {"jobid":"jobID4", "capacity":1,
      "pickup":{
        "lat":48.757751,"lon":9.450042,"street":"Hauptstraße","houseNo":23,"city":"Baltmannsweiler","zip":73666},
      "delivery":{
        "lat":48.439037,"lon":9.1501036,"street":"Groubachstrasse","houseNo":21,"city":"Reutlingen","zip":72770}

    },
    {"jobid":"jobID5", "capacity":1,
      "pickup":{
        "lat":48.48477870000001,"lon":9.204264,"street":"Alteburgstrasse","houseNo":43,"city":"Reutlingen","zip":72770},
      "delivery":{
        "lat":48.782300,"lon":9.176220,"street":"Friedrichstraße","houseNo":14,"city":"Stuttgart","zip":70174}

    },
    {"jobid":"jobID6", "capacity":1,
      "pickup":{
        "lat":48.004496,"lon":7.836053,"street":"Breisacher Straße","houseNo":0,"city":"Freiburg im Breisgau","zip":79098},
      "delivery":{
        "lat":48.782300,"lon":9.176220,"street":"Friedrichstraße","houseNo":14,"city":"Stuttgart","zip":70174}

    }
  ]

}