{ "vehicles": [{ "id": "1", "startlocation": {"lat":  48.067737,"lon":  8.436076 ,"street": "Am Kneippbad 9","houseNo": 0,"city": "Villingen-Schwenningen","zip": 0},"capacity": 4},{ "id": "2", "startlocation": {"lat": 48.093755,"lon":  9.792246,"street": "Königsbergallee","houseNo": 0,"city": "Biberach an der Riß","zip": 0},"capacity": 4},{ "id": "3", "startlocation": {"lat": 49.404073,"lon":  8.676412,"street": "Willy-Brandt-Platz","houseNo": 0,"city": "Heidelberg","zip": 0},"capacity": 4},{ "id": "4", "startlocation": {"lat": 48.786212,"lon":  9.181135,"street": "Am Hauptbahnhof 2","houseNo": 0,"city": "Stuttgart","zip": 0},"capacity": 4}],"services": [{"jobid": "1", "pickup": {"lat": 48.521667, "lon":  9.043705, "street": "Westbahnhofstraße", "houseNo": 0, "city": "Tübingen", "zip": 0, "start": 0, "end": 100000},"delivery": {"lat":48.523955, "lon":  9.042439, "street": "Herrenberger Str. 75-69", "houseNo": 0, "city": "Tübingen", "zip": 0, "start": 0, "end": 10000}, "capacity": 1},{"jobid": "2", "pickup": {"lat": 48.803075, "lon":  9.524441, "street": "Künkelinstraße 36", "houseNo": 0, "city": "Schorndorf", "zip": 0, "start": 0, "end": 100000},"delivery": {"lat":48.786212, "lon":  9.181135, "street": "Am Hauptbahnhof 2", "houseNo": 0, "city": "Stuttgart", "zip": 0, "start": 0, "end": 10000}, "capacity": 3},{"jobid": "3", "pickup": {"lat": 48.747619, "lon":  9.323124, "street": "Rotenackerstraße 22-34", "houseNo": 0, "city": "Esslingen am Neckar", "zip": 0, "start": 0, "end": 100000},"delivery": {"lat":48.742438, "lon":  9.292572, "street": "Mettinger Str. 107-41", "houseNo": 0, "city": "Esslingen am Neckar", "zip": 0, "start": 0, "end": 10000}, "capacity": 1},{"jobid": "4", "pickup": {"lat": 48.642140, "lon":  9.470457, "street": "Jesinger Str. 105", "houseNo": 0, "city": "Kirchheim unter Teck", "zip": 0, "start": 0, "end": 100000},"delivery": {"lat":48.679884, "lon":  8.999376, "street": "Danziger Str. 6", "houseNo": 0, "city": "Böblingen", "zip": 0, "start": 0, "end": 10000}, "capacity": 3},{"jobid": "5", "pickup": {"lat": 48.792177, "lon":  9.166188, "street": "Robert-Bosch-Straße 92-112", "houseNo": 0, "city": "Stuttgart", "zip": 0, "start": 0, "end": 100000},"delivery": {"lat":48.692294, "lon": 9.194367 , "street": "Flughafenstraße", "houseNo": 0, "city": "Leinfelden-Echterdingen", "zip": 0, "start": 0, "end": 10000}, "capacity": 3},{"jobid": "6", "pickup": {"lat": 48.890879, "lon":  9.182318, "street": "Schwieberdinger Str. 30", "houseNo": 0, "city": "Ludwigsburg", "zip": 0, "start": 0, "end": 100000},"delivery": {"lat":48.692294, "lon": 9.194367 , "street": "Flughafenstraße", "houseNo": 0, "city": "Leinfelden-Echterdingen", "zip": 0, "start": 0, "end": 10000}, "capacity": 3},{"jobid": "7", "pickup": {"lat": 48.786212, "lon":  9.181135, "street": "Am Hauptbahnhof 2", "houseNo": 0, "city": "Stuttgart", "zip": 0, "start": 0, "end": 100000},"delivery": {"lat":48.588712, "lon": 9.177688 , "street": "Dettenhauser Str. 37-29", "houseNo": 0, "city": "Walddorfhäslach", "zip": 0, "start": 0, "end": 10000}, "capacity": 2},{"jobid": "8", "pickup": {"lat": 48.496752, "lon":  9.386030, "street": "Braikestraße 1", "houseNo": 0, "city": "Bad Urach", "zip": 0, "start": 0, "end": 100000},"delivery": {"lat":48.495357, "lon":  9.208970, "street": "Bahnhofstraße 1", "houseNo": 0, "city": "Reutlingen", "zip": 0, "start": 0, "end": 10000}, "capacity": 4},{"jobid": "9", "pickup": {"lat": 48.624178, "lon":  9.344623, "street": "Ulrichstraße 10-26", "houseNo": 0, "city": "Nürtingen", "zip": 0, "start": 0, "end": 100000},"delivery": {"lat":48.672281, "lon":  9.373329, "street": "Bahnhofstraße 26", "houseNo": 0, "city": "Wendlingen am Neckar", "zip": 0, "start": 0, "end": 10000}, "capacity": 3},{"jobid": "10", "pickup": {"lat": 48.692294, "lon": 9.194367 , "street": "Flughafenstraße", "houseNo": 0, "city": "Leinfelden-Echterdingen", "zip": 0, "start": 0, "end": 100000},"delivery": {"lat":48.628373, "lon":  9.350481, "street": "Karl-Friedrich-Rumpp-Straße 10-38", "houseNo": 0, "city": "Nürtingen", "zip": 0, "start": 0, "end": 10000}, "capacity": 4},{"jobid": "11", "pickup": {"lat": 48.747619, "lon":  9.323124, "street": "Rotenackerstraße 22-34", "houseNo": 0, "city": "Esslingen am Neckar", "zip": 0, "start": 0, "end": 100000},"delivery": {"lat":48.803075, "lon":  9.524441, "street": "Künkelinstraße 36", "houseNo": 0, "city": "Schorndorf", "zip": 0, "start": 0, "end": 10000}, "capacity": 1},{"jobid": "12", "pickup": {"lat": 48.104536, "lon":  8.203826, "street": "Odenwaldstraße 5-1", "houseNo": 0, "city": "Schönwald im Schwarzwald", "zip": 0, "start": 0, "end": 1000},"delivery": {"lat":48.055985, "lon":  8.465483, "street": "Bahnhofstraße 12", "houseNo": 0, "city": "Villingen-Schwenningen", "zip": 0, "start": 0, "end": 10000}, "capacity": 2},{"jobid": "13", "pickup": {"lat": 48.055985, "lon":  8.465483, "street": "Bahnhofstraße 12", "houseNo": 0, "city": "Villingen-Schwenningen", "zip": 0, "start": 0, "end": 1000},"delivery": {"lat":47.982086, "lon":  8.805691, "street": "Bahnhofstraße 123-107", "houseNo": 0, "city": "Tuttlingen", "zip": 0, "start": 0, "end": 10000}, "capacity": 3},{"jobid": "14", "pickup": {"lat": 47.924178, "lon":  8.189968, "street": "Freiburger Str. 12", "houseNo": 0, "city": "Titisee-Neustadt", "zip": 0, "start": 0, "end": 1000},"delivery": {"lat":47.860346, "lon":  8.036288, "street": "Dr.-Pilet-Spur 1", "houseNo": 0, "city": "Feldberg (Schwarzwald)", "zip": 0, "start": 0, "end": 10000}, "capacity": 4},{"jobid": "15", "pickup": {"lat": 47.925001, "lon":  8.482500, "street": "Bräunlinger Str. 11", "houseNo": 0, "city": "Hüfingen", "zip": 0, "start": 0, "end": 100000},"delivery": {"lat":47.954559, "lon":  8.497579, "street": "Lehenstraße 21", "houseNo": 0, "city": "Donaueschingen", "zip": 0, "start": 0, "end": 10000}, "capacity": 2},{"jobid": "16", "pickup": {"lat": 48.165243, "lon":  8.628827, "street": "Königstraße 8-10", "houseNo": 0, "city": "Rottweil", "zip": 0, "start": 0, "end": 100000},"delivery": {"lat":48.129130, "lon":  8.529056, "street": "Dauchinger Str. 28", "houseNo": 0, "city": "Niedereschach", "zip": 0, "start": 0, "end": 10000}, "capacity": 4},{"jobid": "17", "pickup": {"lat": 47.938654, "lon":  8.730294, "street": "Hindenburgstraße 15-11", "houseNo": 0, "city": "Immendingen", "zip": 0, "start": 0, "end": 100000},"delivery": {"lat":47.985584, "lon":  8.826835, "street": "Königstraße 52-56", "houseNo": 0, "city": "Tuttlingen", "zip": 0, "start": 0, "end": 10000}, "capacity": 4},{"jobid": "18", "pickup": {"lat": 48.212714, "lon":  9.001974, "street": "Lautlinger Str. 158", "houseNo": 0, "city": "Albstadt", "zip": 0, "start": 0, "end": 100000},"delivery": {"lat":48.278280, "lon":  8.851271, "street": "Karlstraße 2", "houseNo": 0, "city": "Balingen", "zip": 0, "start": 0, "end": 10000}, "capacity": 2},{"jobid": "19", "pickup": {"lat": 47.783580, "lon":  9.614629, "street": "Marienpl. 52", "houseNo": 0, "city": "Ravensburg", "zip": 0, "start": 0, "end": 100000},"delivery": {"lat":47.652686, "lon":  9.474190, "street": "Bahnhofpl. 2", "houseNo": 0, "city": "Friedrichshafen", "zip": 0, "start": 0, "end": 10000}, "capacity": 4},{"jobid": "20", "pickup": {"lat": 48.093755, "lon":  9.792246, "street": "Königsbergallee", "houseNo": 0, "city": "Biberach an der Riß", "zip": 0, "start": 0, "end": 100000},"delivery": {"lat":47.698498, "lon":  9.583332, "street": "Obermeckenbeuren", "houseNo": 0, "city": "Meckenbeuren", "zip": 0, "start": 0, "end": 10000}, "capacity": 3},{"jobid": "21", "pickup": {"lat": 47.657892, "lon":  9.477213, "street": "Keplerstraße 16", "houseNo": 0, "city": "Friedrichshafen", "zip": 0, "start": 0, "end": 100000},"delivery": {"lat":47.674401, "lon":  9.319117, "street": "Im Hof 1", "houseNo": 0, "city": "Hagnau am Bodensee", "zip": 0, "start": 0, "end": 10000}, "capacity": 1},{"jobid": "22", "pickup": {"lat": 47.924130, "lon":  9.234575, "street": "Wacker Neuson Str. 1", "houseNo": 0, "city": "Pfullendorf", "zip": 0, "start": 0, "end": 100000},"delivery": {"lat":47.783580, "lon":  9.614629, "street": "Marienpl. 52", "houseNo": 0, "city": "Ravensburg", "zip": 0, "start": 0, "end": 10000}, "capacity": 3},{"jobid": "23", "pickup": {"lat": 48.171991, "lon":  9.793001, "street": "Lilienstraße 12-19", "houseNo": 0, "city": "Schemmerhofen", "zip": 0, "start": 0, "end": 100000},"delivery": {"lat":47.672198, "lon":  9.512137, "street": "Am Flugpl. 64", "houseNo": 0, "city": "Friedrichshafen", "zip": 0, "start": 0, "end": 10000}, "capacity": 2},{"jobid": "24", "pickup": {"lat": 49.324360, "lon":  8.685142, "street": "Pater-Kolbe-Straße 15-1", "houseNo": 0, "city": "Nußloch", "zip": 0, "start": 0, "end": 100000},"delivery": {"lat":49.404073, "lon":  8.676412, "street": "Willy-Brandt-Platz", "houseNo": 0, "city": "Heidelberg", "zip": 0, "start": 0, "end": 10000}, "capacity": 1},{"jobid": "25", "pickup": {"lat": 49.404073, "lon":  8.676412, "street": "Willy-Brandt-Platz", "houseNo": 0, "city": "Heidelberg", "zip": 0, "start": 0, "end": 1000},"delivery": {"lat":49.400531, "lon":  8.629716, "street": "Dr.-Emil-König-Straße 15-3", "houseNo": 0, "city": "Eppelheim", "zip": 0, "start": 0, "end": 10000}, "capacity": 1},{"jobid": "26", "pickup": {"lat": 49.424095, "lon":  8.753185, "street": "Peterstaler Str. 98", "houseNo": 0, "city": "Heidelberg", "zip": 0, "start": 0, "end": 100000},"delivery": {"lat":49.386305, "lon":  8.803556, "street": "Wiesenbacher Str. 65", "houseNo": 0, "city": "Neckargemünd", "zip": 0, "start": 0, "end": 10000}, "capacity": 1},{"jobid": "27", "pickup": {"lat": 49.468665, "lon":  8.994694, "street": "Hohenstaufenstraße 43", "houseNo": 0, "city": "Eberbach", "zip": 0, "start": 0, "end": 100000},"delivery": {"lat":49.465727, "lon":  9.083567, "street": "Laitenhofstraße 2-8", "houseNo": 0, "city": "Waldbrunn", "zip": 0, "start": 0, "end": 10000}, "capacity": 1},{"jobid": "28", "pickup": {"lat": 49.324583, "lon":  8.974843, "street": "Rabanstraße 33-17", "houseNo": 0, "city": "Helmstadt-Bargen", "zip": 0, "start": 0, "end": 100000},"delivery": {"lat":49.350876, "lon":  9.134037, "street": "Am Henschelberg 76", "houseNo": 0, "city": "Mosbach", "zip": 0, "start": 0, "end": 10000}, "capacity": 1},{"jobid": "29", "pickup": {"lat": 49.400358, "lon":  8.627930, "street": "Hauptstraße 70", "houseNo": 0, "city": "Eppelheim", "zip": 0, "start": 0, "end": 100000},"delivery": {"lat":49.415455, "lon":  8.662822, "street": "Tiergartenstraße 3", "houseNo": 0, "city": "Heidelberg", "zip": 0, "start": 0, "end": 10000}, "capacity": 3},{"jobid": "30", "pickup": {"lat": 48.894324, "lon":  8.691280, "street": "Wimpfener Str. 2-10", "houseNo": 0, "city": "Pforzheim", "zip": 0, "start": 0, "end": 1000},"delivery": {"lat":48.858316, "lon":  8.209153, "street": "Rastatt-Innenstadt", "houseNo": 0, "city": "Rastatt", "zip": 0, "start": 0, "end": 10000}, "capacity": 2},{"jobid": "31", "pickup": {"lat": 48.793152, "lon":  9.932673, "street": "Klotzbachstraße", "houseNo": 0, "city": "Heubach", "zip": 0, "start": 0, "end": 100000},"delivery": {"lat":48.800366, "lon":  9.805253, "street": "Wilhelmstraße 12", "houseNo": 0, "city": "Schwäbisch Gmünd", "zip": 0, "start": 0, "end": 10000}, "capacity": 1},{"jobid": "32", "pickup": {"lat": 49.139773, "lon":  8.904126, "street": "Adelshofer Str. 47-29", "houseNo": 0, "city": "Eppingen", "zip": 0, "start": 0, "end": 100000},"delivery": {"lat":49.252134, "lon":  8.882925, "street": "Klostergasse 2-10", "houseNo": 0, "city": "Sinsheim", "zip": 0, "start": 0, "end": 10000}, "capacity": 4},{"jobid": "33", "pickup": {"lat": 49.140490, "lon":  9.221281, "street": "Allee 5", "houseNo": 0, "city": "Heilbronn", "zip": 0, "start": 0, "end": 1000},"delivery": {"lat":49.054942, "lon":  9.250763, "street": "Große Hasengasse 10", "houseNo": 0, "city": "Ilsfeld", "zip": 0, "start": 0, "end": 10000}, "capacity": 3},{"jobid": "34", "pickup": {"lat": 48.949094, "lon":  9.438510, "street": "Fritz-Häuser-Straße 14", "houseNo": 0, "city": "Backnang", "zip": 0, "start": 0, "end": 1000},"delivery": {"lat":48.932967, "lon":  9.527349, "street": "Drosselweg 23", "houseNo": 0, "city": "Auenwald", "zip": 0, "start": 0, "end": 10000}, "capacity": 3},{"jobid": "35", "pickup": {"lat": 49.096909, "lon":  9.676463, "street": "Haller Str. 11/1", "houseNo": 0, "city": "Michelfeld", "zip": 0, "start": 0, "end": 1000},"delivery": {"lat":49.113501, "lon":  9.738660, "street": "Langer Graben 3", "houseNo": 0, "city": "Schwäbisch Hall", "zip": 0, "start": 0, "end": 10000}, "capacity": 1},{"jobid": "36", "pickup": {"lat": 47.995733, "lon":  7.853466, "street": "Münsterplatz 10", "houseNo": 0, "city": "Freiburg im Breisgau", "zip": 0, "start": 0, "end": 1000},"delivery": {"lat":47.997032, "lon":  7.841452, "street": "Bismarckallee 5", "houseNo": 0, "city": "Freiburg im Breisgau", "zip": 0, "start": 0, "end": 10000}, "capacity": 4},{"jobid": "37", "pickup": {"lat": 49.146638, "lon":  9.223545, "street": "Nordbergstraße 10-22", "houseNo": 0, "city": "Heilbronn", "zip": 0, "start": 0, "end": 1000},"delivery": {"lat":48.943915, "lon":  9.168474, "street": "Unnamed Road", "houseNo": 0, "city": "Freiberg am Neckar", "zip": 0, "start": 0, "end": 10000}, "capacity": 1},{"jobid": "38", "pickup": {"lat": 48.507045, "lon":  9.203848, "street": "Sonnenstraße 90-92", "houseNo": 0, "city": "Reutlingen", "zip": 0, "start": 0, "end": 100000},"delivery": {"lat":48.692294, "lon": 9.194367 , "street": "Flughafenstraße", "houseNo": 0, "city": "Leinfelden-Echterdingen", "zip": 0, "start": 0, "end": 10000}, "capacity": 2},{"jobid": "39", "pickup": {"lat": 48.889914, "lon": 8.702685 , "street": "Am Waisenhauspl. 1-3", "houseNo": 0, "city": "Pforzheim", "zip": 0, "start": 0, "end": 1000},"delivery": {"lat":48.993940, "lon":  8.398985, "street": "Bahnhofpl. 14", "houseNo": 0, "city": "Karlsruhe", "zip": 0, "start": 0, "end": 10000}, "capacity": 1},{"jobid": "40", "pickup": {"lat": 48.758001, "lon":  8.241637, "street": "Lichtentaler Str. 28-30", "houseNo": 0, "city": "Baden-Baden", "zip": 0, "start": 0, "end": 1000},"delivery": {"lat":48.474890, "lon":  7.949558, "street": "Carl-Blos-Straße 8-20", "houseNo": 0, "city": "Offenburg", "zip": 0, "start": 0, "end": 10000}, "capacity": 1}]}
